NORAD_CAT_ID,OBJECT_NAME,OBJECT_TYPE,EPOCH,MEAN_MOTION,ECCENTRICITY,INCLINATION,RA_OF_ASC_NODE,ARG_OF_PERICENTER,MEAN_ANOMALY,BSTAR,MEAN_MOTION_DOT,MEAN_MOTION_DDOT,TLE_LINE0,TLE_LINE1,TLE_LINE2,SEMIMAJOR_AXIS,PERIOD,APOGEE,PERIGEE,DECAYED
54775.0,STARLINK-5465,PAYLOAD,2023-04-20 16:37:54,15.08843881,0.000104,53.2179,95.5283,78.1253,281.9855,4.2131e-05,3.83e-06,0.0,0 STARLINK-5465,1 54775U 22175T   23110.69298623  .00000383  00000-0  42131-4 0  9996,2 54775  53.2179  95.5283 0001040  78.1253 281.9855 15.08843881 18643,6917.869,95.437,540.453,539.014,0.0
54775.0,STARLINK-5465,PAYLOAD,2023-04-21 05:21:00,15.08830908,0.0001136,53.2181,93.1498,78.4866,281.6254,6.8194e-05,7.97e-06,0.0,0 STARLINK-5465,1 54775U 22175T   23111.22291693  .00000797  00000-0  68194-4 0  9992,2 54775  53.2181  93.1498 0001136  78.4866 281.6254 15.08830908 20882,6917.908,95.438,540.559,538.987,0.0
54775.0,STARLINK-5465,PAYLOAD,2023-04-21 08:31:46,15.08836433,0.0001139,53.2185,92.5543,79.3411,280.771,-1.2203e-05,-4.82e-06,0.0,0 STARLINK-5465,1 54775U 22175T   23111.35539604 -.00000482  00000-0 -12203-4 0  9996,2 54775  53.2185  92.5543 0001139  79.3411 280.7710 15.08836433 20908,6917.891,95.438,540.544,538.968,0.0
54775.0,STARLINK-5465,PAYLOAD,2023-04-22 06:47:08,15.08855756,0.0001153,53.2179,88.3918,77.1568,282.9553,6.5268e-05,7.51e-06,0.0,0 STARLINK-5465,1 54775U 22175T   23112.28273991  .00000751  00000-0  65268-4 0  9999,2 54775  53.2179  88.3918 0001153  77.1568 282.9553 15.08855756 18887,6917.832,95.437,540.495,538.9,0.0
54775.0,STARLINK-5465,PAYLOAD,2023-04-23 06:37:56,15.08839287,0.0001249,53.2196,83.9336,92.2619,267.8516,8.7966e-05,1.112e-05,0.0,0 STARLINK-5465,1 54775U 22175T   23113.27635017  .00001112  00000-0  87966-4 0  9991,2 54775  53.2196  83.9336 0001249  92.2619 267.8516 15.08839287 19032,6917.883,95.438,540.612,538.884,0.0
54775.0,STARLINK-5465,PAYLOAD,2023-04-24 04:53:19,15.08855699,0.0001301,53.2194,79.7695,107.156,252.9575,3.4479e-05,2.61e-06,0.0,0 STARLINK-5465,1 54775U 22175T   23114.20370043  .00000261  00000-0  34479-4 0  9995,2 54775  53.2194  79.7695 0001301 107.1560 252.9575 15.08855699 19171,6917.832,95.437,540.597,538.797,0.0
54775.0,STARLINK-5465,PAYLOAD,2023-04-24 08:04:05,15.08859978,0.0001323,53.2195,79.1727,103.5571,256.5569,6.6221e-05,7.67e-06,0.0,0 STARLINK-5465,1 54775U 22175T   23114.33617509  .00000767  00000-0  66221-4 0  9991,2 54775  53.2195  79.1727 0001323 103.5571 256.5569 15.08859978 21358,6917.819,95.436,540.6,538.769,0.0
54775.0,STARLINK-5465,PAYLOAD,2023-04-25 06:19:30,15.0884568,0.0001149,53.2187,75.0097,100.1106,260.0016,4.7016e-05,4.61e-06,0.0,0 STARLINK-5465,1 54775U 22175T   23115.26354179  .00000461  00000-0  47016-4 0  9997,2 54775  53.2187  75.0097 0001149 100.1106 260.0016 15.08845680 21494,6917.863,95.437,540.523,538.933,0.0
54775.0,STARLINK-5465,PAYLOAD,2023-04-26 07:45:45,15.0879792,0.0001136,53.2192,70.2525,81.0026,279.1094,-0.00042819,-7.088e-05,0.0,0 STARLINK-5465,1 54775U 22175T   23116.32343832 -.00007088  00000-0 -42819-3 0  9998,2 54775  53.2192  70.2525 0001136  81.0026 279.1094 15.08797920 21655,6918.009,95.44,540.66,539.088,0.0
54775.0,STARLINK-5465,PAYLOAD,2023-04-27 02:50:19,15.08838097,6.13e-05,53.2195,66.6829,75.6461,284.4599,6.894e-05,8.1e-06,0.0,0 STARLINK-5465,1 54775U 22175T   23117.11828133  .00000810  00000-0  68940-4 0  9996,2 54775  53.2195  66.6829 0000613  75.6461 284.4599 15.08838097 19618,6917.886,95.438,540.175,539.327,0.0
54775.0,STARLINK-5465,PAYLOAD,2023-04-27 06:01:05,15.08843222,0.0001273,53.2191,66.088,74.6177,285.4956,0.00011915,1.609e-05,0.0,0 STARLINK-5465,1 54775U 22175T   23117.25075721  .00001609  00000-0  11915-3 0  9994,2 54775  53.2191  66.0880 0001273  74.6177 285.4956 15.08843222 21797,6917.871,95.437,540.616,538.855,0.0
54775.0,STARLINK-5465,PAYLOAD,2023-04-28 02:41:06,15.08832391,0.0001114,53.2185,62.2236,91.0774,269.0346,0.00050275,7.721e-05,0.0,0 STARLINK-5465,1 54775U 22175T   23118.11187821  .00007721  00000-0  50275-3 0  9998,2 54775  53.2185  62.2236 0001114  91.0774 269.0346 15.08832391 19763,6917.904,95.438,540.539,538.998,0.0
54775.0,STARLINK-5465,PAYLOAD,2023-04-28 05:51:52,15.08836988,0.0001131,53.2184,61.6276,93.4196,266.6926,0.00052381,8.058e-05,0.0,0 STARLINK-5465,1 54775U 22175T   23118.24435517  .00008058  00000-0  52381-3 0  9994,2 54775  53.2184  61.6276 0001131  93.4196 266.6926 15.08836988 21948,6917.89,95.438,540.537,538.972,0.0
54775.0,STARLINK-5465,PAYLOAD,2023-04-28 13:48:49,15.0882758,0.0001,53.2187,60.1454,74.9367,285.1736,0.00035465,5.359e-05,0.0,0 STARLINK-5465,1 54775U 22175T   23118.57556831  .00005359  00000-0  35465-3 0  9998,2 54775  53.2187  60.1454 0001000  74.9367 285.1736 15.08827580 19830,6917.918,95.438,540.475,539.092,0.0
54775.0,STARLINK-5465,PAYLOAD,2023-04-29 05:42:39,15.08851476,0.0001164,53.2194,57.1688,100.5678,259.5445,-5.4675e-05,-1.158e-05,0.0,0 STARLINK-5465,1 54775U 22175T   23119.23795582 -.00001158  00000-0 -54675-4 0  9990,2 54775  53.2194  57.1688 0001164 100.5678 259.5445 15.08851476 19939,6917.845,95.437,540.516,538.905,0.0
54775.0,STARLINK-5465,PAYLOAD,2023-04-30 05:33:26,15.08851158,0.0001228,53.2202,52.708,109.0479,251.0647,-8.199e-05,-1.593e-05,0.0,0 STARLINK-5465,1 54775U 22175T   23120.23155312 -.00001593  00000-0 -81990-4 0  9996,2 54775  53.2202  52.7080 0001228 109.0479 251.0647 15.08851158 22246,6917.846,95.437,540.561,538.862,0.0
54775.0,STARLINK-5465,PAYLOAD,2023-05-01 02:13:28,15.08831773,0.0001156,53.2195,48.8427,111.4554,248.6561,-2.4492e-06,-3.27e-06,0.0,0 STARLINK-5465,1 54775U 22175T   23121.09268640 -.00000327  00000-0 -24492-5 0  9999,2 54775  53.2195  48.8427 0001156 111.4554 248.6561 15.08831773 20212,6917.906,95.438,540.57,538.971,0.0
54775.0,STARLINK-5465,PAYLOAD,2023-05-01 18:07:19,15.08832788,0.0001133,53.2193,45.8699,114.7096,245.4014,8.0899e-05,1e-05,0.0,0 STARLINK-5465,1 54775U 22175T   23121.75508745  .00001000  00000-0  80899-4 0  9994,2 54775  53.2193  45.8699 0001133 114.7096 245.4014 15.08832788 22475,6917.902,95.438,540.551,538.984,0.0
54775.0,STARLINK-5465,PAYLOAD,2023-05-02 00:28:51,15.0884174,0.0001066,53.2194,44.6817,99.3535,260.7578,9.1449e-05,1.168e-05,0.0,0 STARLINK-5465,1 54775U 22175T   23122.02004204  .00001168  00000-0  91449-4 0  9994,2 54775  53.2194  44.6817 0001066  99.3535 260.7578 15.08841740 20354,6917.875,95.437,540.478,539.003,0.0
54775.0,STARLINK-5465,PAYLOAD,2023-05-02 05:15:00,15.08848028,0.0001083,53.2197,43.7889,95.345,264.7665,0.00014116,1.96e-05,0.0,0 STARLINK-5465,1 54775U 22175T   23122.21875706  .00001960  00000-0  14116-3 0  9993,2 54775  53.2197  43.7889 0001083  95.3450 264.7665 15.08848028 22547,6917.856,95.437,540.47,538.972,0.0
54775.0,STARLINK-5465,PAYLOAD,2023-05-03 01:55:01,15.08842423,0.0001243,53.2193,39.923,95.6269,264.4865,0.00014596,2.036e-05,0.0,0 STARLINK-5465,1 54775U 22175T   23123.07988182  .00002036  00000-0  14596-3 0  9998,2 54775  53.2193  39.9230 0001243  95.6269 264.4865 15.08842423 20516,6917.873,95.437,540.598,538.878,0.0
54775.0,STARLINK-5465,PAYLOAD,2023-05-03 11:27:20,15.08839057,0.0001021,53.2194,38.139,90.008,270.1029,8.4061e-05,1.05e-05,0.0,0 STARLINK-5465,1 54775U 22175T   23123.47732510  .00001050  00000-0  84061-4 0  9994,2 54775  53.2194  38.1390 0001021  90.0080 270.1029 15.08839057 22730,6917.883,95.438,540.455,539.042,0.0
54775.0,STARLINK-5465,PAYLOAD,2023-05-04 11:18:07,15.08845939,0.0001161,53.2198,33.6788,90.6215,269.491,-1.4017e-05,-5.11e-06,0.0,0 STARLINK-5465,1 54775U 22175T   23124.47092149 -.00000511  00000-0 -14017-4 0  9999,2 54775  53.2198  33.6788 0001161  90.6215 269.4910 15.08845939 22888,6917.862,95.437,540.53,538.924,0.0
54775.0,STARLINK-5465,PAYLOAD,2023-05-04 17:39:40,15.08841223,0.0001258,53.2194,32.4921,78.0976,282.0157,4.472e-05,4.24e-06,0.0,0 STARLINK-5465,1 54775U 22175T   23124.73588394  .00000424  00000-0  44720-4 0  9995,2 54775  53.2194  32.4921 0001258  78.0976 282.0157 15.08841223 20762,6917.877,95.437,540.612,538.871,0.0
54775.0,STARLINK-5465,PAYLOAD,2023-05-05 03:11:58,15.08849222,0.0001033,53.2179,30.7053,95.7165,264.3945,2.4784e-05,1.07e-06,0.0,0 STARLINK-5465,1 54775U 22175T   23125.13331754  .00000107  00000-0  24784-4 0  9992,2 54775  53.2179  30.7053 0001033  95.7165 264.3945 15.08849222 20821,6917.852,95.437,540.432,539.003,0.0
54775.0,STARLINK-5465,PAYLOAD,2023-05-05 20:41:14,15.08834865,0.0001037,53.2174,27.4356,90.8733,269.2378,5.4789e-05,5.84e-06,0.0,0 STARLINK-5465,1 54775U 22175T   23125.86196766  .00000584  00000-0  54789-4 0  9991,2 54775  53.2174  27.4356 0001037  90.8733 269.2378 15.08834865 23099,6917.896,95.438,540.478,539.044,0.0
54775.0,STARLINK-5465,PAYLOAD,2023-05-05 23:52:00,15.08842377,0.000102,53.219,26.8401,91.1547,268.9562,1.657e-05,-2.4e-07,0.0,0 STARLINK-5465,1 54775U 22175T   23125.99444447 -.00000024  00000-0  16570-4 0  9993,2 54775  53.2190  26.8401 0001020  91.1547 268.9562 15.08842377 20950,6917.873,95.437,540.444,539.033,0.0
54775.0,STARLINK-5465,PAYLOAD,2023-05-07 02:53:32,15.08861562,0.0001123,53.2179,21.7844,88.1055,272.0066,0.00031703,4.764e-05,0.0,0 STARLINK-5465,1 54775U 22175T   23127.12051282  .00004764  00000-0  31703-3 0  9999,2 54775  53.2179  21.7844 0001123  88.1055 272.0066 15.08861562 21128,6917.814,95.436,540.456,538.903,0.0
54775.0,STARLINK-5465,PAYLOAD,2023-05-07 21:58:11,15.08832066,9.51e-05,53.2179,18.2167,99.6973,260.4126,1.1668e-06,-2.69e-06,0.0,0 STARLINK-5465,1 54775U 22175T   23127.91541138 -.00000269  00000-0  11668-5 0  9997,2 54775  53.2179  18.2167 0000951  99.6973 260.4126 15.08832066 23409,6917.905,95.438,540.428,539.112,0.0
54775.0,STARLINK-5465,PAYLOAD,2023-05-07 23:33:34,15.0883618,8.57e-05,53.2179,17.9199,96.025,264.084,2.9039e-05,1.74e-06,0.0,0 STARLINK-5465,1 54775U 22175T   23127.98164842  .00000174  00000-0  29039-4 0  9991,2 54775  53.2179  17.9199 0000857  96.0250 264.0840 15.08836180 21259,6917.892,95.438,540.35,539.164,0.0
